CUPID                   
1 49264U 21088E   26068.66993977  .00009454  00000+0  38662-3 0  9991
2 49264  97.3985 131.0756 0013746  59.9938 300.2662 15.24473777245013
STARLINK-30571          
1 58066U 23158R   26068.27155339  .00060192  00000+0  22151-2 0  9991
2 58066  43.0003  29.6030 0001656 178.1167 181.9691 15.27039751133503
