[{"OBJECT_NAME":"CUPID","OBJECT_ID":"2021-088E","EPOCH":"2026-03-09T16:04:42.796128","MEAN_MOTION":15.24473777,"ECCENTRICITY":0.0013746,"INCLINATION":97.3985,"RA_OF_ASC_NODE":131.0756,"ARG_OF_PERICENTER":59.9938,"MEAN_ANOMALY":300.2662,"EPHEMERIS_TYPE":0,"CLASSIFICATION_TYPE":"U","NORAD_CAT_ID":49264,"ELEMENT_SET_NO":999,"REV_AT_EPOCH":24501,"BSTAR":0.00038662302,"MEAN_MOTION_DOT":9.454e-5,"MEAN_MOTION_DDOT":0},{"OBJECT_NAME":"STARLINK-30571","OBJECT_ID":"2023-158R","EPOCH":"2026-03-09T06:31:02.212896","MEAN_MOTION":15.27039751,"ECCENTRICITY":0.00016569,"INCLINATION":43.0003,"RA_OF_ASC_NODE":29.603,"ARG_OF_PERICENTER":178.1167,"MEAN_ANOMALY":181.9691,"EPHEMERIS_TYPE":0,"CLASSIFICATION_TYPE":"U","NORAD_CAT_ID":58066,"ELEMENT_SET_NO":999,"REV_AT_EPOCH":13350,"BSTAR":0.0022151432,"MEAN_MOTION_DOT":0.00060192,"MEAN_MOTION_DDOT":0}]
